{
  "norad_id": 48404,
  "name": "STARLINK-2593",
  "history": [
    {
      "epoch": "2026-04-16T19:49:12.071424Z",
      "apogee_km": 471.51739258589987,
      "perigee_km": 469.9763937099415,
      "latitude_deg": 1.5274053818044015e-05,
      "longitude_deg": 13.20393594933189,
      "height_km": 471.3163352057582,
      "semi_major_axis_km": 6848.88389314792,
      "eccentricity": 0.0001125,
      "inclination_deg": 53.1589,
      "raan_deg": 155.4722,
      "arg_perigee_deg": 64.6863,
      "mean_anomaly_deg": 295.4255,
      "mean_motion_rev_day": 15.31697686
    },
    {
      "epoch": "2026-04-17T11:28:49.098720Z",
      "apogee_km": 471.47634351900615,
      "perigee_km": 470.01670946184004,
      "latitude_deg": -1.5378071198262805e-05,
      "longitude_deg": 134.61908852751014,
      "height_km": 471.39838130296573,
      "semi_major_axis_km": 6848.883526490423,
      "eccentricity": 0.00010656,
      "inclination_deg": 53.1584,
      "raan_deg": 152.4348,
      "arg_perigee_deg": 70.218,
      "mean_anomaly_deg": 289.8936,
      "mean_motion_rev_day": 15.31697809
    },
    {
      "epoch": "2026-04-18T09:24:14.904288Z",
      "apogee_km": 471.3669033178585,
      "perigee_km": 469.92824762993405,
      "latitude_deg": 2.4541004689908693e-05,
      "longitude_deg": 160.60761576616522,
      "height_km": 471.2340782869735,
      "semi_major_axis_km": 6848.7845754738955,
      "eccentricity": 0.00010503,
      "inclination_deg": 53.1583,
      "raan_deg": 148.1812,
      "arg_perigee_deg": 64.2573,
      "mean_anomaly_deg": 295.8537,
      "mean_motion_rev_day": 15.31731004
    },
    {
      "epoch": "2026-04-19T12:01:35.173920Z",
      "apogee_km": 471.00277439473757,
      "perigee_km": 470.3847359073934,
      "latitude_deg": 5.0139409623283835e-05,
      "longitude_deg": 115.01513851079874,
      "height_km": 471.4223628736449,
      "semi_major_axis_km": 6848.830755151065,
      "eccentricity": 4.512e-05,
      "inclination_deg": 53.1587,
      "raan_deg": 143.0165,
      "arg_perigee_deg": 56.3827,
      "mean_anomaly_deg": 303.7218,
      "mean_motion_rev_day": 15.31715512
    },
    {
      "epoch": "2026-04-20T08:23:05.363232Z",
      "apogee_km": 471.66494361876084,
      "perigee_km": 469.832592720345,
      "latitude_deg": 5.737374433236993e-05,
      "longitude_deg": 164.85356449924788,
      "height_km": 471.5266356267091,
      "semi_major_axis_km": 6848.885768169553,
      "eccentricity": 0.00013377,
      "inclination_deg": 53.1594,
      "raan_deg": 139.0668,
      "arg_perigee_deg": 82.4332,
      "mean_anomaly_deg": 277.6822,
      "mean_motion_rev_day": 15.31697057
    },
    {
      "epoch": "2026-04-21T18:50:12.930432Z",
      "apogee_km": 471.68025448401113,
      "perigee_km": 469.73655215854797,
      "latitude_deg": 1.5800559120881726e-05,
      "longitude_deg": -0.026197522002785373,
      "height_km": 471.5632297821435,
      "semi_major_axis_km": 6848.845403321279,
      "eccentricity": 0.0001419,
      "inclination_deg": 53.1596,
      "raan_deg": 132.3835,
      "arg_perigee_deg": 87.4293,
      "mean_anomaly_deg": 272.6871,
      "mean_motion_rev_day": 15.31710598
    },
    {
      "epoch": "2026-04-22T07:21:54.351648Z",
      "apogee_km": 471.9254467608471,
      "perigee_km": 469.54053325292807,
      "latitude_deg": 3.2972798434683083e-05,
      "longitude_deg": 169.1061117954933,
      "height_km": 471.70291235139194,
      "semi_major_axis_km": 6848.869990006888,
      "eccentricity": 0.00017411,
      "inclination_deg": 53.1631,
      "raan_deg": 129.9529,
      "arg_perigee_deg": 93.4419,
      "mean_anomaly_deg": 266.6782,
      "mean_motion_rev_day": 15.3170235
    },
    {
      "epoch": "2026-04-23T08:25:16.444128Z",
      "apogee_km": 471.62115189722135,
      "perigee_km": 469.82058716332176,
      "latitude_deg": 5.650957573277685e-05,
      "longitude_deg": 147.37705605120965,
      "height_km": 471.53291205281624,
      "semi_major_axis_km": 6848.857869530271,
      "eccentricity": 0.00013145,
      "inclination_deg": 53.161,
      "raan_deg": 125.0949,
      "arg_perigee_deg": 84.4757,
      "mean_anomaly_deg": 275.6395,
      "mean_motion_rev_day": 15.31706416
    },
    {
      "epoch": "2026-04-24T07:54:41.279616Z",
      "apogee_km": 471.85379523430584,
      "perigee_km": 469.61147531571623,
      "latitude_deg": -4.603028957243187e-05,
      "longitude_deg": 149.50418745472138,
      "height_km": 471.20192198959137,
      "semi_major_axis_km": 6848.86963527501,
      "eccentricity": 0.0001637,
      "inclination_deg": 53.1606,
      "raan_deg": 120.5403,
      "arg_perigee_deg": 67.4962,
      "mean_anomaly_deg": 292.6212,
      "mean_motion_rev_day": 15.31702469
    },
    {
      "epoch": "2026-04-25T16:47:50.862336Z",
      "apogee_km": 471.7892054994227,
      "perigee_km": 469.6386663055491,
      "latitude_deg": -7.349058390558543e-05,
      "longitude_deg": 8.480158517281872,
      "height_km": 471.54491413888906,
      "semi_major_axis_km": 6848.850935902486,
      "eccentricity": 0.000157,
      "inclination_deg": 53.1597,
      "raan_deg": 114.1568,
      "arg_perigee_deg": 86.4141,
      "mean_anomaly_deg": 273.7039,
      "mean_motion_rev_day": 15.31708742
    }
  ]
}